{
  "norad_id": 58808,
  "name": "STARLINK-31174",
  "history": [
    {
      "epoch": "2026-05-03T15:13:01.371360Z",
      "apogee_km": 483.8804976337933,
      "perigee_km": 482.18167241594165,
      "latitude_deg": -1.853135325284982e-06,
      "longitude_deg": 124.75916555952644,
      "height_km": 482.85990250742924,
      "semi_major_axis_km": 6861.168085024868,
      "eccentricity": 0.0001238,
      "inclination_deg": 43.001,
      "raan_deg": 214.5498,
      "arg_perigee_deg": 266.4801,
      "mean_anomaly_deg": 93.5909,
      "mean_motion_rev_day": 15.27586015
    },
    {
      "epoch": "2026-05-04T13:11:14.252928Z",
      "apogee_km": 483.9621312020445,
      "perigee_km": 482.2523091423782,
      "latitude_deg": 9.711064573344727e-06,
      "longitude_deg": 149.13331573176873,
      "height_km": 482.8983485029395,
      "semi_major_axis_km": 6861.2442201722115,
      "eccentricity": 0.0001246,
      "inclination_deg": 43.0018,
      "raan_deg": 209.3799,
      "arg_perigee_deg": 269.0378,
      "mean_anomaly_deg": 91.0331,
      "mean_motion_rev_day": 15.27560589
    },
    {
      "epoch": "2026-05-05T12:43:34.000032Z",
      "apogee_km": 484.11420230746535,
      "perigee_km": 481.95018954307125,
      "latitude_deg": 6.330634708598801e-06,
      "longitude_deg": 149.54522394103003,
      "height_km": 482.8132664430844,
      "semi_major_axis_km": 6861.1691959252685,
      "eccentricity": 0.0001577,
      "inclination_deg": 43.0012,
      "raan_deg": 203.8408,
      "arg_perigee_deg": 269.7833,
      "mean_anomaly_deg": 90.2838,
      "mean_motion_rev_day": 15.27585644
    },
    {
      "epoch": "2026-05-06T05:59:17.657088Z",
      "apogee_km": 483.5514314007851,
      "perigee_km": 482.5785129611295,
      "latitude_deg": 4.964495323261512e-06,
      "longitude_deg": -114.15961504153317,
      "height_km": 483.25786647166314,
      "semi_major_axis_km": 6861.201972180957,
      "eccentricity": 7.09e-05,
      "inclination_deg": 42.9977,
      "raan_deg": 199.7768,
      "arg_perigee_deg": 210.8941,
      "mean_anomaly_deg": 149.1869,
      "mean_motion_rev_day": 15.27574698
    },
    {
      "epoch": "2026-05-07T05:31:38.390880Z",
      "apogee_km": 483.93212564624264,
      "perigee_km": 482.20035794801333,
      "latitude_deg": 2.784570348443386e-05,
      "longitude_deg": -113.75300128368698,
      "height_km": 483.70499269050885,
      "semi_major_axis_km": 6861.203241797128,
      "eccentricity": 0.0001262,
      "inclination_deg": 42.9972,
      "raan_deg": 194.2365,
      "arg_perigee_deg": 176.09,
      "mean_anomaly_deg": 183.9962,
      "mean_motion_rev_day": 15.27574274
    },
    {
      "epoch": "2026-05-08T11:20:36.489120Z",
      "apogee_km": 483.80905723521846,
      "perigee_km": 482.3037114066974,
      "latitude_deg": -3.1293941661786084e-05,
      "longitude_deg": 150.76625036055,
      "height_km": 483.1047540666926,
      "semi_major_axis_km": 6861.193384320957,
      "eccentricity": 0.0001097,
      "inclination_deg": 43.002,
      "raan_deg": 187.2224,
      "arg_perigee_deg": 248.8313,
      "mean_anomaly_deg": 111.2421,
      "mean_motion_rev_day": 15.27577566
    },
    {
      "epoch": "2026-05-09T10:52:57.188352Z",
      "apogee_km": 483.7564041492624,
      "perigee_km": 482.33888340185877,
      "latitude_deg": -3.200402786107021e-05,
      "longitude_deg": 151.17538463080828,
      "height_km": 482.92490202321716,
      "semi_major_axis_km": 6861.18464377556,
      "eccentricity": 0.0001033,
      "inclination_deg": 43.0014,
      "raan_deg": 181.6845,
      "arg_perigee_deg": 261.8291,
      "mean_anomaly_deg": 98.2443,
      "mean_motion_rev_day": 15.27580485
    },
    {
      "epoch": "2026-05-10T10:25:18.554592Z",
      "apogee_km": 483.7784951704034,
      "perigee_km": 482.388411906516,
      "latitude_deg": -7.634588263883518e-07,
      "longitude_deg": 151.58076702813864,
      "height_km": 482.7966580300711,
      "semi_major_axis_km": 6861.220453538459,
      "eccentricity": 0.0001013,
      "inclination_deg": 43.0019,
      "raan_deg": 176.1456,
      "arg_perigee_deg": 275.2324,
      "mean_anomaly_deg": 84.8412,
      "mean_motion_rev_day": 15.27568526
    },
    {
      "epoch": "2026-05-11T19:22:35.173920Z",
      "apogee_km": 483.7767467379872,
      "perigee_km": 482.3358961404847,
      "latitude_deg": 6.982434716471242e-05,
      "longitude_deg": 8.152696429932751,
      "height_km": 482.6804692417211,
      "semi_major_axis_km": 6861.193321439236,
      "eccentricity": 0.000105,
      "inclination_deg": 43.0011,
      "raan_deg": 168.3901,
      "arg_perigee_deg": 282.2104,
      "mean_anomaly_deg": 77.8631,
      "mean_motion_rev_day": 15.27577587
    },
    {
      "epoch": "2026-05-12T09:29:59.591040Z",
      "apogee_km": 483.79682986945045,
      "perigee_km": 482.31618431062,
      "latitude_deg": -1.486832782448538e-06,
      "longitude_deg": 152.3971531161718,
      "height_km": 482.6978087470439,
      "semi_major_axis_km": 6861.193507090035,
      "eccentricity": 0.0001079,
      "inclination_deg": 43.0011,
      "raan_deg": 165.0664,
      "arg_perigee_deg": 280.5268,
      "mean_anomaly_deg": 79.5462,
      "mean_motion_rev_day": 15.27577525
    },
    {
      "epoch": "2026-05-13T09:02:20.465664Z",
      "apogee_km": 483.7766579091567,
      "perigee_km": 482.33169104781155,
      "latitude_deg": 4.186678337619648e-05,
      "longitude_deg": 152.80450451167394,
      "height_km": 482.7184668763951,
      "semi_major_axis_km": 6861.191174478484,
      "eccentricity": 0.0001053,
      "inclination_deg": 43.0011,
      "raan_deg": 159.5274,
      "arg_perigee_deg": 278.937,
      "mean_anomaly_deg": 81.1363,
      "mean_motion_rev_day": 15.27578304
    },
    {
      "epoch": "2026-05-13T09:02:20.466528Z",
      "apogee_km": 483.77686374489167,
      "perigee_km": 482.3314852120766,
      "latitude_deg": 4.4197274046124054e-05,
      "longitude_deg": 152.80450338705668,
      "height_km": 482.71843490500225,
      "semi_major_axis_km": 6861.191174478484,
      "eccentricity": 0.00010533,
      "inclination_deg": 43.0011,
      "raan_deg": 159.5274,
      "arg_perigee_deg": 278.937,
      "mean_anomaly_deg": 81.1363,
      "mean_motion_rev_day": 15.27578304
    },
    {
      "epoch": "2026-05-14T10:08:50.653536Z",
      "apogee_km": 483.77644294637685,
      "perigee_km": 482.3349063654323,
      "latitude_deg": -2.2776377104250804e-05,
      "longitude_deg": 129.23928851814068,
      "height_km": 482.73437105497663,
      "semi_major_axis_km": 6861.192674655905,
      "eccentricity": 0.00010505,
      "inclination_deg": 43.0013,
      "raan_deg": 153.6192,
      "arg_perigee_deg": 277.8033,
      "mean_anomaly_deg": 82.2699,
      "mean_motion_rev_day": 15.27577803
    },
    {
      "epoch": "2026-05-16T17:04:19.153056Z",
      "apogee_km": 483.7105331785251,
      "perigee_km": 482.4082781007346,
      "latitude_deg": -2.0529904044978265e-05,
      "longitude_deg": 10.190168283219341,
      "height_km": 482.7765284018589,
      "semi_major_axis_km": 6861.19640563963,
      "eccentricity": 9.49e-05,
      "inclination_deg": 43.0008,
      "raan_deg": 140.6945,
      "arg_perigee_deg": 275.2243,
      "mean_anomaly_deg": 84.85,
      "mean_motion_rev_day": 15.27576557
    }
  ]
}